BANDWAGON-2 OBJECT D    
1 62380U 24247D   26068.52261193  .00011259  00000+0  40119-3 0  9994
2 62380  44.9954 115.6710 0003488 351.1453   8.9368 15.29076102 67732
STARLINK-34126          
1 64083U 25107V   26068.40115591  .00025398  00000+0  92824-3 0  9998
2 64083  42.9998 203.4065 0001550 276.3985  83.6690 15.27616604 44980
